BEIDOU-3 M14            
1 43623U 18072B   26129.20348764 -.00000020  00000+0  00000+0 0  9991
2 43623  56.5941  63.9398 0006694 345.6638  14.3071  1.86231536 51926
BEIDOU-3 M16            
1 43647U 18078A   26129.35942515 -.00000037  00000+0  00000+0 0  9991
2 43647  54.1265 301.3466 0007924  39.4697 320.5792  1.86232384 51430
BEIDOU-3 M15            
1 43648U 18078B   26128.95177431 -.00000037  00000+0  00000+0 0  9994
2 43648  54.1224 301.3614 0005073  51.4620 308.5741  1.86232654 51445
BEIDOU-3 G1             
1 43683U 18085A   26130.79150480 -.00000096  00000+0  00000+0 0  9996
2 43683   2.9792  98.3582 0007661 338.1716 236.9830  1.00273168 27681
BEIDOU-3 M17            
1 43706U 18093A   26129.24918965  .00000044  00000+0  00000+0 0  9991
2 43706  54.1671 183.6178 0009134 291.2507 160.2904  1.86228609 50811
BEIDOU-3 M18            
1 43707U 18093B   26130.04957237  .00000052  00000+0  00000+0 0  9996
2 43707  54.1678 183.5827 0007287 322.3384  37.6875  1.86226895 50825
BEIDOU-3 IGSO-1         
1 44204U 19023A   26129.65679304 -.00000217  00000+0  00000+0 0  9998
2 44204  58.6428  38.0490 0024008 234.3721 307.0515  1.00251812  6826
BEIDOU-2 G8             
1 44231U 19027A   26130.78265032 -.00000236  00000+0  00000+0 0  9998
2 44231   1.5630  74.4105 0011032 282.1591 298.2816  1.00274401 25706
BEIDOU-3 IGSO-2         
1 44337U 19035A   26130.52174663 -.00000065  00000+0  00000+0 0  9995
2 44337  55.2384 159.1933 0039672 215.7274 161.0970  1.00278958 25298
BEIDOU-3 M24            
1 44542U 19061A   26129.04479801  .00000042  00000+0  00000+0 0  9993
2 44542  54.3946 184.0482 0008103   3.6991 356.3835  1.86229217 45065
BEIDOU-3 M23            
1 44543U 19061B   26130.23725355  .00000054  00000+0  00000+0 0  9998
2 44543  54.3931 183.9765 0005083 345.3388   6.0609  1.86227724 45083
BEIDOU-3 IGSO-3         
1 44709U 19073A   26120.85038409 -.00000212  00000+0  00000+0 0  9996
2 44709  54.8842 281.4069 0042404 188.8195 170.9972  1.00251230 23982
BEIDOU-3 M22            
1 44793U 19078A   26129.42102106 -.00000037  00000+0  00000+0 0  9997
2 44793  53.9723 301.1911 0007198  47.1122 312.9393  1.86227546 43925
BEIDOU-3 M21            
1 44794U 19078B   26130.09800295 -.00000037  00000+0  00000+0 0  9997
2 44794  53.9450 301.1295 0004992  44.9662 315.0658  1.86228028 43947
BEIDOU-3 M19            
1 44864U 19090A   26128.45489995 -.00000021  00000+0  00000+0 0  9999
2 44864  56.5258  64.1039 0019341 296.1478 239.2902  1.86231845 43492
BEIDOU-3 M20            
1 44865U 19090B   26129.38368757 -.00000020  00000+0  00000+0 0  9994
2 44865  56.5282  64.1078 0017025 308.8996 218.8417  1.86231698 43496
BEIDOU-3 G2             
1 45344U 20017A   26130.55600350 -.00000129  00000+0  00000+0 0  9997
2 45344   2.7884  46.8139 0002773   8.4061  93.3269  1.00270581 22886
BEIDOU-3 G3             
1 45807U 20040A   26130.86225458 -.00000343  00000+0  00000+0 0  9991
2 45807   2.3555  67.3358 0003527 333.2309 248.9979  1.00277048 21693
BEIDOU-3 G4             
1 56564U 23066A   26130.85299830 -.00000273  00000+0  00000+0 0  9990
2 56564   0.5368 322.6244 0003528 159.8365 193.2745  1.00267265 11011
BEIDOU-3 M28            
1 58654U 23207A   26130.17519654 -.00000023  00000+0  00000+0 0  9996
2 58654  55.7207  63.5853 0004296 329.1054  30.8593  1.86229756 16136
BEIDOU-3 M26            
1 58655U 23207B   26130.50964877 -.00000023  00000+0  00000+0 0  9995
2 58655  55.7231  63.5604 0004534 308.9915  50.9578  1.86229738 16129
BEIDOU-3 M25            
1 61186U 24168B   26128.72217630 -.00000038  00000+0  00000+0 0  9990
2 61186  54.5099 303.6138 0003219 315.5987  43.1750  1.86230280 11049
BEIDOU-3 M27            
1 61187U 24168C   26129.05472400 -.00000038  00000+0  00000+0 0  9996
2 61187  54.5049 303.5853 0002347  41.6147 315.1318  1.86230358  8521
